GLOBALSTAR M059         
1 25944U 99058B   25213.83149595 -.00000087  00000+0 -63534-5 0  9994
2 25944  52.0020  83.6908 0001317  51.4034  54.7178 11.99980185579529
GLOBALSTAR M056         
1 25945U 99058C   25213.62823057 -.00000104  00000+0 -19243-3 0  9990
2 25945  51.9965  85.0340 0000482 325.6278  50.0606 12.04780022168108
GLOBALSTAR M031         
1 25946U 99058D   25213.54148363 -.00000138  00000+0 -48582-3 0  9997
2 25946  51.9994 334.8870 0000719 250.0830 191.2596 12.16040169170060
GLOBALSTAR M039         
1 25961U 99062A   25213.69349964 -.00000071  00000+0  18265-3 0  9995
2 25961  51.9842 130.1129 0003107  80.8419 279.2799 12.62330216185962
GLOBALSTAR M061         
1 25964U 99062D   25214.18225882 -.00000118  00000+0 -61691-3 0  9999
2 25964  51.9798  76.4723 0006786  52.2413 102.1315 11.76775885126883
